{
  "type": "FeatureCollection",
  "features": [
    {
      "type": "Feature",
      "properties": {
        "norad_id": 34570,
        "name": "COSMOS 2251 DEB",
        "group": "cosmos-2251-debris",
        "lat": -47.86479011073757,
        "lon": -154.17266292723164,
        "alt_km": 1028.907056198571,
        "timestamp": "2025-12-09T05:43:21.121096+00:00",
        "meta_object_name": "COSMOS 2251 DEB",
        "meta_object_id": "1993-036VG",
        "meta_epoch": "2025-12-08T03:13:50.965824",
        "meta_mean_motion": 13.99808134,
        "meta_eccentricity": 0.01902354,
        "meta_inclination": 73.9576,
        "meta_ra_of_asc_node": 226.2908,
        "meta_arg_of_pericenter": 109.816,
        "meta_mean_anomaly": 40.2324,
        "meta_ephemeris_type": 0,
        "meta_classification_type": "U",
        "meta_norad_cat_id": 34570,
        "meta_element_set_no": 999,
        "meta_rev_at_epoch": 85536,
        "meta_bstar": 0.00067376474,
        "meta_mean_motion_dot": 1.132e-05,
        "meta_mean_motion_ddot": 0,
        "tle_line1": "1 34570U 93036VG  25342.13461766  .00001132  00000+0  67376-3 0  9998",
        "tle_line2": "2 34570  73.9576 226.2908 0190235 109.8160  40.2324 13.99808134855360"
      },
      "geometry": {
        "type": "Point",
        "coordinates": [
          -154.17266292723164,
          -47.86479011073757
        ]
      }
    },
    {
      "type": "Feature",
      "properties": {
        "norad_id": 34571,
        "name": "COSMOS 2251 DEB",
        "group": "cosmos-2251-debris",
        "lat": -73.2631871561342,
        "lon": 81.10843325870313,
        "alt_km": 700.4945845395732,
        "timestamp": "2025-12-09T05:43:21.121107+00:00",
        "meta_object_name": "COSMOS 2251 DEB",
        "meta_object_id": "1993-036VH",
        "meta_epoch": "2025-12-08T00:19:43.274784",
        "meta_mean_motion": 14.48697899,
        "meta_eccentricity": 0.00665855,
        "meta_inclination": 74.0397,
        "meta_ra_of_asc_node": 191.2872,
        "meta_arg_of_pericenter": 227.3377,
        "meta_mean_anomaly": 132.2161,
        "meta_ephemeris_type": 0,
        "meta_classification_type": "U",
        "meta_norad_cat_id": 34571,
        "meta_element_set_no": 999,
        "meta_rev_at_epoch": 87225,
        "meta_bstar": 0.0024060709,
        "meta_mean_motion_dot": 9.309e-05,
        "meta_mean_motion_ddot": 0,
        "tle_line1": "1 34571U 93036VH  25342.01369531  .00009309  00000+0  24061-2 0  9990",
        "tle_line2": "2 34571  74.0397 191.2872 0066585 227.3377 132.2161 14.48697899872258"
      },
      "geometry": {
        "type": "Point",
        "coordinates": [
          81.10843325870313,
          -73.2631871561342
        ]
      }
    },
    {
      "type": "Feature",
      "properties": {
        "norad_id": 34572,
        "name": "COSMOS 2251 DEB",
        "group": "cosmos-2251-debris",
        "lat": 63.682977467093195,
        "lon": -93.34046706093663,
        "alt_km": 715.4997128546365,
        "timestamp": "2025-12-09T05:43:21.121117+00:00",
        "meta_object_name": "COSMOS 2251 DEB",
        "meta_object_id": "1993-036VJ",
        "meta_epoch": "2025-12-08T19:57:57.467232",
        "meta_mean_motion": 14.49880112,
        "meta_eccentricity": 0.0063387,
        "meta_inclination": 74.0103,
        "meta_ra_of_asc_node": 122.8558,
        "meta_arg_of_pericenter": 197.3594,
        "meta_mean_anomaly": 313.4756,
        "meta_ephemeris_type": 0,
        "meta_classification_type": "U",
        "meta_norad_cat_id": 34572,
        "meta_element_set_no": 999,
        "meta_rev_at_epoch": 87321,
        "meta_bstar": 0.0045546,
        "meta_mean_motion_dot": 0.00018073,
        "meta_mean_motion_ddot": 0,
        "tle_line1": "1 34572U 93036VJ  25342.83191513  .00018073  00000+0  45546-2 0  9993",
        "tle_line2": "2 34572  74.0103 122.8558 0063387 197.3594 313.4756 14.49880112873212"
      },
      "geometry": {
        "type": "Point",
        "coordinates": [
          -93.34046706093663,
          63.682977467093195
        ]
      }
    },
    {
      "type": "Feature",
      "properties": {
        "norad_id": 34574,
        "name": "COSMOS 2251 DEB",
        "group": "cosmos-2251-debris",
        "lat": 71.28877301484852,
        "lon": 172.42412745144787,
        "alt_km": 610.4248889047794,
        "timestamp": "2025-12-09T05:43:21.121128+00:00",
        "meta_object_name": "COSMOS 2251 DEB",
        "meta_object_id": "1993-036VL",
        "meta_epoch": "2025-12-08T13:28:39.083808",
        "meta_mean_motion": 14.70533696,
        "meta_eccentricity": 0.0066851,
        "meta_inclination": 74.0692,
        "meta_ra_of_asc_node": 51.2259,
        "meta_arg_of_pericenter": 73.5607,
        "meta_mean_anomaly": 44.1457,
        "meta_ephemeris_type": 0,
        "meta_classification_type": "U",
        "meta_norad_cat_id": 34574,
        "meta_element_set_no": 999,
        "meta_rev_at_epoch": 88717,
        "meta_bstar": 0.001243,
        "meta_mean_motion_dot": 7.788e-05,
        "meta_mean_motion_ddot": 0,
        "tle_line1": "1 34574U 93036VL  25342.56156347  .00007788  00000+0  12430-2 0  9998",
        "tle_line2": "2 34574  74.0692  51.2259 0066851  73.5607  44.1457 14.70533696887171"
      },
      "geometry": {
        "type": "Point",
        "coordinates": [
          172.42412745144787,
          71.28877301484852
        ]
      }
    },
    {
      "type": "Feature",
      "properties": {
        "norad_id": 34576,
        "name": "COSMOS 2251 DEB",
        "group": "cosmos-2251-debris",
        "lat": -71.31833011100818,
        "lon": 22.686348818126422,
        "alt_km": 709.6647727582804,
        "timestamp": "2025-12-09T05:43:21.121138+00:00",
        "meta_object_name": "COSMOS 2251 DEB",
        "meta_object_id": "1993-036VN",
        "meta_epoch": "2025-12-08T12:17:31.843968",
        "meta_mean_motion": 14.55375764,
        "meta_eccentricity": 0.00080493,
        "meta_inclination": 74.0338,
        "meta_ra_of_asc_node": 146.2054,
        "meta_arg_of_pericenter": 280.7593,
        "meta_mean_anomaly": 135.8263,
        "meta_ephemeris_type": 0,
        "meta_classification_type": "U",
        "meta_norad_cat_id": 34576,
        "meta_element_set_no": 999,
        "meta_rev_at_epoch": 88405,
        "meta_bstar": 0.0012955401,
        "meta_mean_motion_dot": 5.603e-05,
        "meta_mean_motion_ddot": 0,
        "tle_line1": "1 34576U 93036VN  25342.51217412  .00005603  00000+0  12955-2 0  9992",
        "tle_line2": "2 34576  74.0338 146.2054 0008049 280.7593 135.8263 14.55375764884059"
      },
      "geometry": {
        "type": "Point",
        "coordinates": [
          22.686348818126422,
          -71.31833011100818
        ]
      }
    },
    {
      "type": "Feature",
      "properties": {
        "norad_id": 34579,
        "name": "COSMOS 2251 DEB",
        "group": "cosmos-2251-debris",
        "lat": -60.904417354135475,
        "lon": 81.32902594823612,
        "alt_km": 736.3490989494576,
        "timestamp": "2025-12-09T05:43:21.121149+00:00",
        "meta_object_name": "COSMOS 2251 DEB",
        "meta_object_id": "1993-036VR",
        "meta_epoch": "2025-12-08T18:55:19.657344",
        "meta_mean_motion": 14.4529221,
        "meta_eccentricity": 0.0027578,
        "meta_inclination": 74.0532,
        "meta_ra_of_asc_node": 231.249,
        "meta_arg_of_pericenter": 300.4704,
        "meta_mean_anomaly": 124.5641,
        "meta_ephemeris_type": 0,
        "meta_classification_type": "U",
        "meta_norad_cat_id": 34579,
        "meta_element_set_no": 999,
        "meta_rev_at_epoch": 88117,
        "meta_bstar": 0.00078995,
        "meta_mean_motion_dot": 2.76e-05,
        "meta_mean_motion_ddot": 0,
        "tle_line1": "1 34579U 93036VR  25342.78842196  .00002760  00000+0  78995-3 0  9995",
        "tle_line2": "2 34579  74.0532 231.2490 0027578 300.4704 124.5641 14.45292210881177"
      },
      "geometry": {
        "type": "Point",
        "coordinates": [
          81.32902594823612,
          -60.904417354135475
        ]
      }
    },
    {
      "type": "Feature",
      "properties": {
        "norad_id": 34582,
        "name": "COSMOS 2251 DEB",
        "group": "cosmos-2251-debris",
        "lat": -27.677079146889206,
        "lon": 107.53212933001961,
        "alt_km": 786.9959882911662,
        "timestamp": "2025-12-09T05:43:21.121159+00:00",
        "meta_object_name": "COSMOS 2251 DEB",
        "meta_object_id": "1993-036VU",
        "meta_epoch": "2025-12-08T20:26:30.956352",
        "meta_mean_motion": 14.43293828,
        "meta_eccentricity": 0.0047635,
        "meta_inclination": 74.0202,
        "meta_ra_of_asc_node": 279.6068,
        "meta_arg_of_pericenter": 30.6427,
        "meta_mean_anomaly": 329.7496,
        "meta_ephemeris_type": 0,
        "meta_classification_type": "U",
        "meta_norad_cat_id": 34582,
        "meta_element_set_no": 999,
        "meta_rev_at_epoch": 87891,
        "meta_bstar": 0.0013792,
        "meta_mean_motion_dot": 4.686e-05,
        "meta_mean_motion_ddot": 0,
        "tle_line1": "1 34582U 93036VU  25342.85174718  .00004686  00000+0  13792-2 0  9997",
        "tle_line2": "2 34582  74.0202 279.6068 0047635  30.6427 329.7496 14.43293828878911"
      },
      "geometry": {
        "type": "Point",
        "coordinates": [
          107.53212933001961,
          -27.677079146889206
        ]
      }
    }
  ]
}